JILIN-1 GAOFEN 3D04     
1 52389U 22046B   26068.73342222  .00178961  00000+0  11177-2 0  9998
2 52389  97.4899 183.6662 0001527 245.0805 115.0302 15.76354751214874
STARLINK-36435          
1 67568U 26016H   26068.67271210  .00433264  00000+0  27416-2 0  9998
2 67568  97.2843 129.2043 0002102  55.0112 305.1351 15.75352330  6803
