[{"OBJECT_NAME":"JILIN-1 GAOFEN 3D04","OBJECT_ID":"2022-046B","EPOCH":"2026-03-09T17:36:07.679808","MEAN_MOTION":15.76354751,"ECCENTRICITY":0.00015268,"INCLINATION":97.4899,"RA_OF_ASC_NODE":183.6662,"ARG_OF_PERICENTER":245.0805,"MEAN_ANOMALY":115.0302,"EPHEMERIS_TYPE":0,"CLASSIFICATION_TYPE":"U","NORAD_CAT_ID":52389,"ELEMENT_SET_NO":999,"REV_AT_EPOCH":21487,"BSTAR":0.001117663,"MEAN_MOTION_DOT":0.00178961,"MEAN_MOTION_DDOT":0},{"OBJECT_NAME":"STARLINK-36435","OBJECT_ID":"2026-016H","EPOCH":"2026-03-09T16:08:42.325440","MEAN_MOTION":15.7535233,"ECCENTRICITY":0.00021017,"INCLINATION":97.2843,"RA_OF_ASC_NODE":129.2043,"ARG_OF_PERICENTER":55.0112,"MEAN_ANOMALY":305.1351,"EPHEMERIS_TYPE":0,"CLASSIFICATION_TYPE":"U","NORAD_CAT_ID":67568,"ELEMENT_SET_NO":999,"REV_AT_EPOCH":680,"BSTAR":0.0027415741,"MEAN_MOTION_DOT":0.00433264,"MEAN_MOTION_DDOT":0}]
